{
  "type": "FeatureCollection",
  "features": [
    {
      "type": "Feature",
      "properties": {
        "norad_id": 66496,
        "name": "STARLINK-35909",
        "group": "last-30-days",
        "lat": -21.031780541985345,
        "lon": -34.183194558190095,
        "alt_km": 416.347581928615,
        "timestamp": "2025-12-13T08:49:14.455618+00:00",
        "meta_object_name": "STARLINK-35909",
        "meta_object_id": "2025-263M",
        "meta_epoch": "2025-12-12T17:59:55.902048",
        "meta_mean_motion": 15.50601004,
        "meta_eccentricity": 0.00015889,
        "meta_inclination": 42.9983,
        "meta_ra_of_asc_node": 125.0593,
        "meta_arg_of_pericenter": 275.2711,
        "meta_mean_anomaly": 84.7968,
        "meta_ephemeris_type": 0,
        "meta_classification_type": "U",
        "meta_norad_cat_id": 66496,
        "meta_element_set_no": 999,
        "meta_rev_at_epoch": 556,
        "meta_bstar": 0.0011964781,
        "meta_mean_motion_dot": 0.00070541,
        "meta_mean_motion_ddot": 0,
        "tle_line1": "1 66496U 25263M   25346.74995257  .00070541  00000+0  11965-2 0  9997",
        "tle_line2": "2 66496  42.9983 125.0593 0001588 275.2711  84.7968 15.50601004  5560"
      },
      "geometry": {
        "type": "Point",
        "coordinates": [
          -34.183194558190095,
          -21.031780541985345
        ]
      }
    },
    {
      "type": "Feature",
      "properties": {
        "norad_id": 66497,
        "name": "STARLINK-35899",
        "group": "last-30-days",
        "lat": -22.263899491037044,
        "lon": -32.49678645756788,
        "alt_km": 416.33159692429945,
        "timestamp": "2025-12-13T08:49:14.455628+00:00",
        "meta_object_name": "STARLINK-35899",
        "meta_object_id": "2025-263N",
        "meta_epoch": "2025-12-12T17:59:25.949760",
        "meta_mean_motion": 15.50614255,
        "meta_eccentricity": 0.00016472,
        "meta_inclination": 42.9982,
        "meta_ra_of_asc_node": 125.0558,
        "meta_arg_of_pericenter": 278.6423,
        "meta_mean_anomaly": 81.4251,
        "meta_ephemeris_type": 0,
        "meta_classification_type": "U",
        "meta_norad_cat_id": 66497,
        "meta_element_set_no": 999,
        "meta_rev_at_epoch": 556,
        "meta_bstar": 0.0016088279,
        "meta_mean_motion_dot": 0.00095318,
        "meta_mean_motion_ddot": 0,
        "tle_line1": "1 66497U 25263N   25346.74960590  .00095318  00000+0  16088-2 0  9990",
        "tle_line2": "2 66497  42.9982 125.0558 0001647 278.6423  81.4251 15.50614255  5565"
      },
      "geometry": {
        "type": "Point",
        "coordinates": [
          -32.49678645756788,
          -22.263899491037044
        ]
      }
    },
    {
      "type": "Feature",
      "properties": {
        "norad_id": 66498,
        "name": "STARLINK-35907",
        "group": "last-30-days",
        "lat": 40.632190251707726,
        "lon": -125.34389589362999,
        "alt_km": 438.371711529152,
        "timestamp": "2025-12-13T08:49:14.455640+00:00",
        "meta_object_name": "STARLINK-35907",
        "meta_object_id": "2025-263P",
        "meta_epoch": "2025-12-12T20:00:01.999872",
        "meta_mean_motion": 15.40608236,
        "meta_eccentricity": 0.00013994,
        "meta_inclination": 43.0003,
        "meta_ra_of_asc_node": 124.7812,
        "meta_arg_of_pericenter": 277.1302,
        "meta_mean_anomaly": 103.7876,
        "meta_ephemeris_type": 0,
        "meta_classification_type": "U",
        "meta_norad_cat_id": 66498,
        "meta_element_set_no": 999,
        "meta_rev_at_epoch": 565,
        "meta_bstar": 0.0031836531,
        "meta_mean_motion_dot": 0.00134646,
        "meta_mean_motion_ddot": 0,
        "tle_line1": "1 66498U 25263P   25346.83335648  .00134646  00000+0  31837-2 0  9998",
        "tle_line2": "2 66498  43.0003 124.7812 0001399 277.1302 103.7876 15.40608236  5657"
      },
      "geometry": {
        "type": "Point",
        "coordinates": [
          -125.34389589362999,
          40.632190251707726
        ]
      }
    },
    {
      "type": "Feature",
      "properties": {
        "norad_id": 66499,
        "name": "STARLINK-35816",
        "group": "last-30-days",
        "lat": 23.273275758813583,
        "lon": -85.87722546389435,
        "alt_km": 440.8564100361764,
        "timestamp": "2025-12-13T08:49:14.455651+00:00",
        "meta_object_name": "STARLINK-35816",
        "meta_object_id": "2025-263Q",
        "meta_epoch": "2025-12-12T20:00:01.999872",
        "meta_mean_motion": 15.40610724,
        "meta_eccentricity": 0.00014046,
        "meta_inclination": 42.9999,
        "meta_ra_of_asc_node": 124.6902,
        "meta_arg_of_pericenter": 277.0339,
        "meta_mean_anomaly": 141.1992,
        "meta_ephemeris_type": 0,
        "meta_classification_type": "U",
        "meta_norad_cat_id": 66499,
        "meta_element_set_no": 999,
        "meta_rev_at_epoch": 565,
        "meta_bstar": 0.003413869,
        "meta_mean_motion_dot": 0.00144607,
        "meta_mean_motion_ddot": 0,
        "tle_line1": "1 66499U 25263Q   25346.83335648  .00144607  00000+0  34139-2 0  9995",
        "tle_line2": "2 66499  42.9999 124.6902 0001404 277.0339 141.1992 15.40610724  5655"
      },
      "geometry": {
        "type": "Point",
        "coordinates": [
          -85.87722546389435,
          23.273275758813583
        ]
      }
    },
    {
      "type": "Feature",
      "properties": {
        "norad_id": 66500,
        "name": "STARLINK-35894",
        "group": "last-30-days",
        "lat": 42.30498150257347,
        "lon": -160.6476330927098,
        "alt_km": 443.7859190817262,
        "timestamp": "2025-12-13T08:49:14.455662+00:00",
        "meta_object_name": "STARLINK-35894",
        "meta_object_id": "2025-263R",
        "meta_epoch": "2025-12-12T20:00:01.999872",
        "meta_mean_motion": 15.41043182,
        "meta_eccentricity": 0.00015274,
        "meta_inclination": 43.0007,
        "meta_ra_of_asc_node": 124.8421,
        "meta_arg_of_pericenter": 262.8082,
        "meta_mean_anomaly": 93.1523,
        "meta_ephemeris_type": 0,
        "meta_classification_type": "U",
        "meta_norad_cat_id": 66500,
        "meta_element_set_no": 999,
        "meta_rev_at_epoch": 565,
        "meta_bstar": -0.048905087,
        "meta_mean_motion_dot": -0.01856495,
        "meta_mean_motion_ddot": 0,
        "tle_line1": "1 66500U 25263R   25346.83335648 -.01856495  00000+0 -48905-1 0  9991",
        "tle_line2": "2 66500  43.0007 124.8421 0001527 262.8082  93.1523 15.41043182  5656"
      },
      "geometry": {
        "type": "Point",
        "coordinates": [
          -160.6476330927098,
          42.30498150257347
        ]
      }
    },
    {
      "type": "Feature",
      "properties": {
        "norad_id": 66501,
        "name": "STARLINK-35897",
        "group": "last-30-days",
        "lat": 7.224335793158413,
        "lon": -66.267016183683,
        "alt_km": 443.8523748436455,
        "timestamp": "2025-12-13T08:49:14.455672+00:00",
        "meta_object_name": "STARLINK-35897",
        "meta_object_id": "2025-263S",
        "meta_epoch": "2025-12-12T20:00:01.999872",
        "meta_mean_motion": 15.41032276,
        "meta_eccentricity": 0.00016666,
        "meta_inclination": 43,
        "meta_ra_of_asc_node": 124.6303,
        "meta_arg_of_pericenter": 268.0557,
        "meta_mean_anomaly": 174.8771,
        "meta_ephemeris_type": 0,
        "meta_classification_type": "U",
        "meta_norad_cat_id": 66501,
        "meta_element_set_no": 999,
        "meta_rev_at_epoch": 565,
        "meta_bstar": -0.013500736,
        "meta_mean_motion_dot": -0.00532488,
        "meta_mean_motion_ddot": 0,
        "tle_line1": "1 66501U 25263S   25346.83335648 -.00532488  00000+0 -13501-1 0  9998",
        "tle_line2": "2 66501  43.0000 124.6303 0001666 268.0557 174.8771 15.41032276  5650"
      },
      "geometry": {
        "type": "Point",
        "coordinates": [
          -66.267016183683,
          7.224335793158413
        ]
      }
    },
    {
      "type": "Feature",
      "properties": {
        "norad_id": 66502,
        "name": "STARLINK-35922",
        "group": "last-30-days",
        "lat": -29.99517429373031,
        "lon": -20.315429540993854,
        "alt_km": 416.66149711482467,
        "timestamp": "2025-12-13T08:49:14.455683+00:00",
        "meta_object_name": "STARLINK-35922",
        "meta_object_id": "2025-263T",
        "meta_epoch": "2025-12-12T17:55:58.795392",
        "meta_mean_motion": 15.50609171,
        "meta_eccentricity": 0.00015478,
        "meta_inclination": 42.999,
        "meta_ra_of_asc_node": 125.0365,
        "meta_arg_of_pericenter": 278.8468,
        "meta_mean_anomaly": 81.2217,
        "meta_ephemeris_type": 0,
        "meta_classification_type": "U",
        "meta_norad_cat_id": 66502,
        "meta_element_set_no": 999,
        "meta_rev_at_epoch": 556,
        "meta_bstar": 0.0018757972,
        "meta_mean_motion_dot": 0.00111401,
        "meta_mean_motion_ddot": 0,
        "tle_line1": "1 66502U 25263T   25346.74720828  .00111401  00000+0  18758-2 0  9993",
        "tle_line2": "2 66502  42.9990 125.0365 0001547 278.8468  81.2217 15.50609171  5568"
      },
      "geometry": {
        "type": "Point",
        "coordinates": [
          -20.315429540993854,
          -29.99517429373031
        ]
      }
    }
  ]
}